BEIDOU-2 IGSO-1 (C06)   
1 36828U 10036A   24150.49765069 -.00000064  00000+0  00000+0 0  9994
2 36828  54.2501 169.7310 0042218 206.5891 157.1131  1.00287752 50715
BEIDOU-2 G4 (C04)       
1 37210U 10057A   24151.58459486 -.00000108  00000+0  00000+0 0  9996
2 37210   1.8038  68.5743 0002886 173.8845  16.6730  1.00270955 49799
BEIDOU-2 IGSO-2 (C07)   
1 37256U 10068A   24150.78450848 -.00000210  00000+0  00000+0 0  9996
2 37256  48.9141 281.0458 0035033 209.2079 146.2770  1.00255476 49283
BEIDOU-2 IGSO-3 (C08)   
1 37384U 11013A   24151.51401021 -.00000203  00000+0  00000+0 0  9992
2 37384  61.3262  47.2815 0026152 175.8938 318.0463  1.00262606 48179
BEIDOU-2 IGSO-4 (C09)   
1 37763U 11038A   24149.43725184  .00000047  00000+0  00000+0 0  9992
2 37763  54.5557 172.3488 0125272 228.8266  98.0261  1.00262994 47128
BEIDOU-2 IGSO-5 (C10)   
1 37948U 11073A   24149.83868959 -.00000144  00000+0  00000+0 0  9997
2 37948  49.0479 280.7422 0097286 219.0902 141.5183  1.00255959 45622
BEIDOU-2 G5 (C05)       
1 38091U 12008A   24151.56210892  .00000059  00000+0  00000+0 0  9990
2 38091   2.0337  70.7438 0006945 270.1505 168.8911  1.00277029 44876
BEIDOU-2 M3 (C11)       
1 38250U 12018A   24149.06544249 -.00000053  00000+0  00000+0 0  9991
2 38250  56.3521 330.0104 0020616 263.9808  95.7894  1.86231196 81978
BEIDOU-2 M4 (C12)       
1 38251U 12018B   24150.06963525 -.00000053  00000+0  00000+0 0  9996
2 38251  56.2590 329.2500 0011517 266.7368  93.1366  1.86231900 81997
BEIDOU-2 M6 (C14)       
1 38775U 12050B   24150.31604862  .00000010  00000+0  00000+0 0  9999
2 38775  55.8991  87.7936 0014378 336.8503  23.0672  1.86231027 79365
BEIDOU-2 G6 (C02)       
1 38953U 12059A   24151.49552064 -.00000171  00000+0  00000+0 0  9991
2 38953   2.5153  80.6245 0010379 313.8954 116.2755  1.00275095 42411
BEIDOU-3S IGSO-1S (C31) 
1 40549U 15019A   24149.90188528 -.00000157  00000+0  00000+0 0  9991
2 40549  50.6110 304.4176 0037840 191.9279 167.1132  1.00253635 33554
BEIDOU-3S M2S (C58)     
1 40748U 15037A   24149.19614189 -.00000053  00000+0  00000+0 0  9995
2 40748  55.4921 327.7124 0007948 251.4715 108.4448  1.86233132 60150
BEIDOU-3S M1S (C57)     
1 40749U 15037B   24150.00345950 -.00000054  00000+0  00000+0 0  9996
2 40749  55.4945 327.6721 0004000   3.7587 356.2479  1.86232857 60172
BEIDOU-3S IGSO-2S (C56) 
1 40938U 15053A   24150.78236843 -.00000152  00000+0  00000+0 0  9998
2 40938  50.3870 267.6209 0052101 189.3321 168.6033  1.00266234 31844
BEIDOU-2 IGSO-6 (C13)   
1 41434U 16021A   24150.48717238 -.00000173  00000+0  00000+0 0  9998
2 41434  59.1497  45.5372 0047867 223.3637 250.0303  1.00274171 29970
BEIDOU-2 G7 (C03)       
1 41586U 16037A   24151.57236571 -.00000350  00000+0  00000+0 0  9997
2 41586   1.8653  69.4604 0009654   5.4587 130.2491  1.00269795 29292
BEIDOU-3 M1 (C19)       
1 43001U 17069A   24149.00819100  .00000011  00000+0  00000+0 0  9990
2 43001  56.0486  87.9315 0011573 306.3777  53.4949  1.86231275 44638
BEIDOU-3 M2 (C20)       
1 43002U 17069B   24150.01929880  .00000011  00000+0  00000+0 0  9991
2 43002  56.0487  87.9336 0009614 328.0690  31.8546  1.86230927 44648
BEIDOU-3 M7 (C27)       
1 43107U 18003A   24149.23166733 -.00000055  00000+0  00000+0 0  9997
2 43107  54.9498 328.3109 0005010  73.1208 286.9378  1.86232407 43383
BEIDOU-3 M8 (C28)       
1 43108U 18003B   24150.24584154 -.00000056  00000+0  00000+0 0  9993
2 43108  54.9423 328.2617 0002406 259.5882 100.3890  1.86230847 43417
BEIDOU-3 M4 (C22)       
1 43207U 18018A   24150.15017603  .00000011  00000+0  00000+0 0  9999
2 43207  56.0082  87.9832 0007113 350.0206   9.9472  1.86231161 42796
BEIDOU-3 M3 (C21)       
1 43208U 18018B   24151.29066296  .00000005  00000+0  00000+0 0  9991
2 43208  56.0084  87.9496 0009363 318.3776  41.5332  1.86231053 42813
BEIDOU-3 M9 (C29)       
1 43245U 18029A   24150.97513278 -.00000057  00000+0  00000+0 0  9993
2 43245  54.8328 325.9607 0000505  97.8546 262.1533  1.86232364 41968
BEIDOU-3 M10 (C30)      
1 43246U 18029B   24151.44178662 -.00000060  00000+0  00000+0 0  9995
2 43246  54.8295 325.9725 0004018  22.2005 337.8192  1.86232797 41958
BEIDOU-2 IGSO-7 (C16)   
1 43539U 18057A   24151.46368913 -.00000063  00000+0  00000+0 0  9996
2 43539  55.1398 169.5226 0075316 233.4183 124.1890  1.00257945 21634
BEIDOU-3 M5 (C23)       
1 43581U 18062A   24150.05372003  .00000044  00000+0  00000+0 0  9996
2 43581  54.1336 207.7861 0004693 273.1379  86.8884  1.86228547 39681
BEIDOU-3 M6 (C24)       
1 43582U 18062B   24149.91967879  .00000045  00000+0  00000+0 0  9992
2 43582  54.1331 207.7801 0004065   4.8496 355.2350  1.86229345 39681
BEIDOU-3 M12 (C26)      
1 43602U 18067A   24149.31628869  .00000049  00000+0  00000+0 0  9991
2 43602  54.2238 206.4800 0006698  19.9743 340.1355  1.86231669 39154
BEIDOU-3 M11 (C25)      
1 43603U 18067B   24148.91327690  .00000052  00000+0  00000+0 0  9999
2 43603  54.2208 206.4590 0003616   4.1988 355.8899  1.86231573 39174
BEIDOU-3 M13 (C32)      
1 43622U 18072A   24151.02182159  .00000006  00000+0  00000+0 0  9990
2 43622  55.9798  87.4856 0008033 306.7953  53.1137  1.86231414 38727
BEIDOU-3 M14 (C33)      
1 43623U 18072B   24149.27641629  .00000010  00000+0  00000+0 0  9992
2 43623  55.9805  87.5370 0006209 330.3613  29.5841  1.86231428 38687
BEIDOU-3 M16 (C35)      
1 43647U 18078A   24151.05011303 -.00000058  00000+0  00000+0 0  9996
2 43647  54.7293 326.0581 0007415  23.9699 336.0670  1.86232145 38239
BEIDOU-3 M15 (C34)      
1 43648U 18078B   24150.10539425 -.00000055  00000+0  00000+0 0  9999
2 43648  54.7255 326.0937 0004571  38.7596 321.2750  1.86232167 38221
BEIDOU-3 G1 (C59)       
1 43683U 18085A   24151.57819622 -.00000274  00000+0  00000+0 0  9991
2 43683   2.1489 110.2551 0004281 351.0705 135.4001  1.00267713 20565
BEIDOU-3 M17 (C36)      
1 43706U 18093A   24149.71851519  .00000046  00000+0  00000+0 0  9996
2 43706  54.2165 207.7344 0009629 279.1146  80.8580  1.86228213 37583
BEIDOU-3 M18 (C37)      
1 43707U 18093B   24151.19486372  .00000044  00000+0  00000+0 0  9991
2 43707  54.2171 207.6760 0007540 305.3292  54.6767  1.86229636 37605
BEIDOU-3 IGSO-1 (C38)   
1 44204U 19023A   24150.61924498 -.00000229  00000+0  00000+0 0  9996
2 44204  57.6148  45.4182 0018814 210.4687 331.5651  1.00254561 18839
BEIDOU-2 G8 (C01)       
1 44231U 19027A   24151.57130192 -.00000244  00000+0  00000+0 0  9993
2 44231   1.9058  73.8179 0002493 154.3653  10.5969  1.00269701 18587
BEIDOU-3 IGSO-2 (C39)   
1 44337U 19035A   24151.45778420 -.00000065  00000+0  00000+0 0  9999
2 44337  55.1762 165.4233 0033295 209.5944 153.7587  1.00246135 18173
BEIDOU-3 M24 (C46)      
1 44542U 19061A   24151.26457459  .00000044  00000+0  00000+0 0  9997
2 44542  54.4440 207.9646 0007390 345.1369  14.9177  1.86231148 31867
BEIDOU-3 M23 (C45)      
1 44543U 19061B   24151.39691421  .00000044  00000+0  00000+0 0  9991
2 44543  54.4424 207.9291 0004878 324.4726  36.5559  1.86231435 31875
BEIDOU-3 IGSO-3 (C40)   
1 44709U 19073A   24149.79062566 -.00000193  00000+0  00000+0 0  9997
2 44709  56.0843 288.9296 0038437 180.8081 179.1358  1.00255426 16946
BEIDOU-3 M22 (C44)      
1 44793U 19078A   24150.03644884 -.00000055  00000+0  00000+0 0  9990
2 44793  54.5777 326.0275 0006523  32.2940 327.7477  1.86232069 30697
BEIDOU-3 M21 (C43)      
1 44794U 19078B   24149.62933624 -.00000054  00000+0  00000+0 0  9996
2 44794  54.5518 326.0181 0004264  31.2716 328.7552  1.86232548 30694
BEIDOU-3 M19 (C41)      
1 44864U 19090A   24151.22927325  .00000004  00000+0  00000+0 0  9992
2 44864  55.9144  87.6512 0018683 284.7579 260.8631  1.86231494 30303
BEIDOU-3 M20 (C42)      
1 44865U 19090B   24150.60934715  .00000008  00000+0  00000+0 0  9999
2 44865  55.9153  87.7052 0016718 297.4552 282.2745  1.86231424 30276
BEIDOU-3 G2 (C60)       
1 45344U 20017A   24150.49269042 -.00000136  00000+0  00000+0 0  9997
2 45344   2.2937  28.9085 0001034  77.3240  38.6446  1.00269893 15755
BEIDOU-3 G3 (C61)       
1 45807U 20040A   24151.57618771 -.00000350  00000+0  00000+0 0  9992
2 45807   0.7491  40.0476 0004600 290.9749 235.4764  1.00266082 14571
BEIDOU-3 G4             
1 56564U 23066A   24151.58459399 -.00000109  00000+0  00000+0 0  9997
2 56564   2.1665 288.2128 0005404 195.9702 134.9167  1.00270518  3890
BEIDOU-3 M25            
1 58654U 23207A   24151.32287756  .00000003  00000+0  00000+0 0  9996
2 58654  55.0971  87.6762 0003892 303.7863  56.1586  1.86232211  2914
BEIDOU-3 M26            
1 58655U 23207B   24151.12180506  .00000004  00000+0  00000+0 0  9991
2 58655  55.0989  87.6683 0004282 283.7188  76.2157  1.86231848  2896
